[{"OBJECT_NAME":"LUCAS (JDRS-1)","OBJECT_ID":"2020-089A","EPOCH":"2026-03-02T20:01:12.014112","MEAN_MOTION":1.00273605,"ECCENTRICITY":0.0002839,"INCLINATION":0.0647,"RA_OF_ASC_NODE":275.3339,"ARG_OF_PERICENTER":60.9087,"MEAN_ANOMALY":215.4105,"EPHEMERIS_TYPE":0,"CLASSIFICATION_TYPE":"U","NORAD_CAT_ID":47202,"ELEMENT_SET_NO":999,"REV_AT_EPOCH":1935,"BSTAR":0,"MEAN_MOTION_DOT":-2.52e-6,"MEAN_MOTION_DDOT":0},{"OBJECT_NAME":"SXM-7","OBJECT_ID":"2020-096A","EPOCH":"2026-03-02T08:50:38.666112","MEAN_MOTION":1.00275144,"ECCENTRICITY":0.00040249,"INCLINATION":0.0187,"RA_OF_ASC_NODE":122.031,"ARG_OF_PERICENTER":7.7857,"MEAN_ANOMALY":77.7989,"EPHEMERIS_TYPE":0,"CLASSIFICATION_TYPE":"U","NORAD_CAT_ID":47240,"ELEMENT_SET_NO":999,"REV_AT_EPOCH":637,"BSTAR":0,"MEAN_MOTION_DOT":-2.23e-6,"MEAN_MOTION_DDOT":0},{"OBJECT_NAME":"CMS-01","OBJECT_ID":"2020-099A","EPOCH":"2026-03-02T15:48:26.553024","MEAN_MOTION":1.00272363,"ECCENTRICITY":0.0006539,"INCLINATION":0.0149,"RA_OF_ASC_NODE":136.5446,"ARG_OF_PERICENTER":152.2006,"MEAN_ANOMALY":191.7769,"EPHEMERIS_TYPE":0,"CLASSIFICATION_TYPE":"U","NORAD_CAT_ID":47256,"ELEMENT_SET_NO":999,"REV_AT_EPOCH":1913,"BSTAR":0,"MEAN_MOTION_DOT":-1.81e-6,"MEAN_MOTION_DDOT":0},{"OBJECT_NAME":"TURKSAT 5A","OBJECT_ID":"2021-001A","EPOCH":"2026-03-02T17:41:05.968032","MEAN_MOTION":1.00270284,"ECCENTRICITY":1.47e-5,"INCLINATION":0.0199,"RA_OF_ASC_NODE":100.9178,"ARG_OF_PERICENTER":199.6848,"MEAN_ANOMALY":156.0918,"EPHEMERIS_TYPE":0,"CLASSIFICATION_TYPE":"U","NORAD_CAT_ID":47306,"ELEMENT_SET_NO":999,"REV_AT_EPOCH":1889,"BSTAR":0,"MEAN_MOTION_DOT":1.37e-6,"MEAN_MOTION_DDOT":0},{"OBJECT_NAME":"TIANTONG-1 3","OBJECT_ID":"2021-003A","EPOCH":"2026-03-02T17:02:16.891008","MEAN_MOTION":1.00269909,"ECCENTRICITY":0.0006622,"INCLINATION":1.8555,"RA_OF_ASC_NODE":332.988,"ARG_OF_PERICENTER":340.6572,"MEAN_ANOMALY":183.9058,"EPHEMERIS_TYPE":0,"CLASSIFICATION_TYPE":"U","NORAD_CAT_ID":47321,"ELEMENT_SET_NO":999,"REV_AT_EPOCH":1889,"BSTAR":0,"MEAN_MOTION_DOT":-1.7e-6,"MEAN_MOTION_DDOT":0},{"OBJECT_NAME":"TJS-6","OBJECT_ID":"2021-010A","EPOCH":"2026-03-02T16:40:26.781888","MEAN_MOTION":1.00270041,"ECCENTRICITY":0.0003194,"INCLINATION":0.3248,"RA_OF_ASC_NODE":90.8809,"ARG_OF_PERICENTER":282.2043,"MEAN_ANOMALY":215.9755,"EPHEMERIS_TYPE":0,"CLASSIFICATION_TYPE":"U","NORAD_CAT_ID":47613,"ELEMENT_SET_NO":999,"REV_AT_EPOCH":1874,"BSTAR":0,"MEAN_MOTION_DOT":2.6e-7,"MEAN_MOTION_DDOT":0},{"OBJECT_NAME":"SBIRS GEO-5 (USA 315)","OBJECT_ID":"2021-042A","EPOCH":"2026-03-02T19:09:23.649696","MEAN_MOTION":1.0027149,"ECCENTRICITY":0.0001558,"INCLINATION":5.239,"RA_OF_ASC_NODE":328.3273,"ARG_OF_PERICENTER":356.8913,"MEAN_ANOMALY":216.475,"EPHEMERIS_TYPE":0,"CLASSIFICATION_TYPE":"U","NORAD_CAT_ID":48618,"ELEMENT_SET_NO":999,"REV_AT_EPOCH":1770,"BSTAR":0,"MEAN_MOTION_DOT":-2.83e-6,"MEAN_MOTION_DDOT":0},{"OBJECT_NAME":"FENGYUN 4B","OBJECT_ID":"2021-047A","EPOCH":"2026-03-02T20:07:38.616960","MEAN_MOTION":1.00265698,"ECCENTRICITY":0.000883,"INCLINATION":0.1882,"RA_OF_ASC_NODE":76.8532,"ARG_OF_PERICENTER":296.4496,"MEAN_ANOMALY":193.7569,"EPHEMERIS_TYPE":0,"CLASSIFICATION_TYPE":"U","NORAD_CAT_ID":48808,"ELEMENT_SET_NO":999,"REV_AT_EPOCH":1750,"BSTAR":0,"MEAN_MOTION_DOT":-3.45e-6,"MEAN_MOTION_DDOT":0},{"OBJECT_NAME":"SXM-8","OBJECT_ID":"2021-049A","EPOCH":"2026-03-02T06:31:38.410176","MEAN_MOTION":1.00274439,"ECCENTRICITY":0.0004221,"INCLINATION":0.0258,"RA_OF_ASC_NODE":60.0583,"ARG_OF_PERICENTER":343.6903,"MEAN_ANOMALY":129.0399,"EPHEMERIS_TYPE":0,"CLASSIFICATION_TYPE":"U","NORAD_CAT_ID":48838,"ELEMENT_SET_NO":999,"REV_AT_EPOCH":1752,"BSTAR":0,"MEAN_MOTION_DOT":-2.23e-6,"MEAN_MOTION_DDOT":0},{"OBJECT_NAME":"TIANLIAN 1-05","OBJECT_ID":"2021-063A","EPOCH":"2026-03-02T21:59:16.668096","MEAN_MOTION":1.00270998,"ECCENTRICITY":0.0004686,"INCLINATION":1.3196,"RA_OF_ASC_NODE":81.5938,"ARG_OF_PERICENTER":226.9565,"MEAN_ANOMALY":198.7013,"EPHEMERIS_TYPE":0,"CLASSIFICATION_TYPE":"U","NORAD_CAT_ID":49011,"ELEMENT_SET_NO":999,"REV_AT_EPOCH":1701,"BSTAR":0,"MEAN_MOTION_DOT":9.2e-7,"MEAN_MOTION_DDOT":0},{"OBJECT_NAME":"STAR ONE D2","OBJECT_ID":"2021-069A","EPOCH":"2026-03-02T12:04:12.771840","MEAN_MOTION":1.00290841,"ECCENTRICITY":0.0001914,"INCLINATION":0.0155,"RA_OF_ASC_NODE":132.8688,"ARG_OF_PERICENTER":231.1859,"MEAN_ANOMALY":267.2912,"EPHEMERIS_TYPE":0,"CLASSIFICATION_TYPE":"U","NORAD_CAT_ID":49055,"ELEMENT_SET_NO":999,"REV_AT_EPOCH":1686,"BSTAR":0,"MEAN_MOTION_DOT":-2.83e-6,"MEAN_MOTION_DDOT":0},{"OBJECT_NAME":"EUTELSAT QUANTUM","OBJECT_ID":"2021-069B","EPOCH":"2026-03-02T12:37:47.053920","MEAN_MOTION":1.00271278,"ECCENTRICITY":0.00029,"INCLINATION":0.0187,"RA_OF_ASC_NODE":128.2806,"ARG_OF_PERICENTER":213.5571,"MEAN_ANOMALY":55.6294,"EPHEMERIS_TYPE":0,"CLASSIFICATION_TYPE":"U","NORAD_CAT_ID":49056,"ELEMENT_SET_NO":999,"REV_AT_EPOCH":1685,"BSTAR":0,"MEAN_MOTION_DOT":0,"MEAN_MOTION_DDOT":0},{"OBJECT_NAME":"ZHONGXING-2E","OBJECT_ID":"2021-071A","EPOCH":"2026-03-02T02:36:03.879936","MEAN_MOTION":1.00267704,"ECCENTRICITY":1.989e-5,"INCLINATION":0.0222,"RA_OF_ASC_NODE":118.0356,"ARG_OF_PERICENTER":346.5104,"MEAN_ANOMALY":192.363,"EPHEMERIS_TYPE":0,"CLASSIFICATION_TYPE":"U","NORAD_CAT_ID":49062,"ELEMENT_SET_NO":999,"REV_AT_EPOCH":1696,"BSTAR":0,"MEAN_MOTION_DOT":-3.08e-6,"MEAN_MOTION_DDOT":0},{"OBJECT_NAME":"TJS-7","OBJECT_ID":"2021-077A","EPOCH":"2026-03-02T13:38:33.726624","MEAN_MOTION":1.00269764,"ECCENTRICITY":0.0001706,"INCLINATION":0.2326,"RA_OF_ASC_NODE":88.3878,"ARG_OF_PERICENTER":259.7203,"MEAN_ANOMALY":277.3303,"EPHEMERIS_TYPE":0,"CLASSIFICATION_TYPE":"U","NORAD_CAT_ID":49115,"ELEMENT_SET_NO":999,"REV_AT_EPOCH":848,"BSTAR":0,"MEAN_MOTION_DOT":-1.4e-6,"MEAN_MOTION_DDOT":0},{"OBJECT_NAME":"CHINASAT 9B","OBJECT_ID":"2021-080A","EPOCH":"2026-03-02T21:30:20.507616","MEAN_MOTION":1.00272331,"ECCENTRICITY":0.0002164,"INCLINATION":0.0358,"RA_OF_ASC_NODE":264.5724,"ARG_OF_PERICENTER":53.6136,"MEAN_ANOMALY":266.4758,"EPHEMERIS_TYPE":0,"CLASSIFICATION_TYPE":"U","NORAD_CAT_ID":49125,"ELEMENT_SET_NO":999,"REV_AT_EPOCH":1658,"BSTAR":0,"MEAN_MOTION_DOT":-3.29e-6,"MEAN_MOTION_DDOT":0},{"OBJECT_NAME":"SHIJIAN-21 (SJ-21)","OBJECT_ID":"2021-094A","EPOCH":"2026-03-02T19:37:21.224928","MEAN_MOTION":1.00268672,"ECCENTRICITY":0.004846,"INCLINATION":4.8614,"RA_OF_ASC_NODE":61.7781,"ARG_OF_PERICENTER":171.6129,"MEAN_ANOMALY":349.4972,"EPHEMERIS_TYPE":0,"CLASSIFICATION_TYPE":"U","NORAD_CAT_ID":49330,"ELEMENT_SET_NO":999,"REV_AT_EPOCH":429,"BSTAR":0,"MEAN_MOTION_DOT":-3.62e-6,"MEAN_MOTION_DDOT":0},{"OBJECT_NAME":"SES-17","OBJECT_ID":"2021-095A","EPOCH":"2026-03-02T13:47:47.841792","MEAN_MOTION":1.0027017,"ECCENTRICITY":0.0001054,"INCLINATION":0.0237,"RA_OF_ASC_NODE":63.9843,"ARG_OF_PERICENTER":272.0224,"MEAN_ANOMALY":324.1771,"EPHEMERIS_TYPE":0,"CLASSIFICATION_TYPE":"U","NORAD_CAT_ID":49332,"ELEMENT_SET_NO":999,"REV_AT_EPOCH":1678,"BSTAR":0,"MEAN_MOTION_DOT":-2.89e-6,"MEAN_MOTION_DDOT":0}]
